KUIPER-00152            
1 65772U 25217L   25343.16668980  .00085765  00000+0  22864-2 0  9999
2 65772  51.8707  81.2100 0002544 333.5639 310.1232 15.37414547  1998
KUIPER-00153            
1 65773U 25217M   25342.72987805  .00015970  00000+0  95844-3 0  9991
2 65773  51.8776  90.7317 0012524   6.2200 353.8929 15.11006520 11333
KUIPER-00155            
1 65774U 25217N   25342.54011019  .00054842  00000+0  14696-2 0  9993
2 65774  51.8653  85.0492 0006963 354.7345   5.3567 15.37442243 11397
KUIPER-00156            
1 65775U 25217P   25342.53774176  .00057836  00000+0  14830-2 0  9999
2 65775  51.8732  84.3361 0002732 338.4668  21.6204 15.38793796 11404
KUIPER-00158            
1 65776U 25217Q   25343.16668980  .00046973  00000+0  39379-2 0  9990
2 65776  51.8875  86.7419 0004928 346.2639 140.8368 14.97922170  5320
KUIPER-00163            
1 65777U 25217R   25343.16668980  .00042247  00000+0  41961-2 0  9991
2 65777  51.8908  88.6646 0011547  14.5494 104.7521 14.91262542  5188
KUIPER-00165            
1 65778U 25217S   25342.55411721 -.00005868  00000+0 -19391-3 0  9996
2 65778  51.8766  85.1337 0005397 333.9468  26.1242 15.28840500 11399
KUIPER-00166            
1 65779U 25217T   25342.55225265  .00055473  00000+0  14315-2 0  9998
2 65779  51.8710  84.4268 0003690 317.4984  42.5717 15.38614263 11405
